{
  "norad_id": 39091,
  "name": "BRITE-AUSTRIA",
  "history": [
    {
      "epoch": "2026-03-28T11:32:18.548736Z",
      "apogee_km": 778.1178281216044,
      "perigee_km": 762.010357706874,
      "latitude_deg": 3.7731348282139415e-06,
      "longitude_deg": -90.05849148879808,
      "height_km": 776.8275402066319,
      "semi_major_axis_km": 7148.201092914239,
      "eccentricity": 0.00112668,
      "inclination_deg": 98.3972,
      "raan_deg": 268.9194,
      "arg_perigee_deg": 118.4557,
      "mean_anomaly_deg": 241.7766,
      "mean_motion_rev_day": 14.3650658
    },
    {
      "epoch": "2026-03-29T00:54:43.096320Z",
      "apogee_km": 778.1318099439741,
      "perigee_km": 761.9940338003544,
      "latitude_deg": -9.092076121022077e-05,
      "longitude_deg": 69.33341110131424,
      "height_km": 776.6445054302811,
      "semi_major_axis_km": 7148.199921872164,
      "eccentricity": 0.0011288,
      "inclination_deg": 98.3973,
      "raan_deg": 269.4628,
      "arg_perigee_deg": 116.943,
      "mean_anomaly_deg": 243.291,
      "mean_motion_rev_day": 14.36506933
    },
    {
      "epoch": "2026-03-29T22:38:37.950720Z",
      "apogee_km": 778.140011493163,
      "perigee_km": 761.9807964417532,
      "latitude_deg": -2.8954052109860234e-05,
      "longitude_deg": 103.3453448788959,
      "height_km": 776.3360819738717,
      "semi_major_axis_km": 7148.197403967458,
      "eccentricity": 0.0011303,
      "inclination_deg": 98.3973,
      "raan_deg": 270.3458,
      "arg_perigee_deg": 114.5024,
      "mean_anomaly_deg": 245.7342,
      "mean_motion_rev_day": 14.36507692
    }
  ]
}